start=new Date('2022-10-12T00:00:00.000Z').valueOf();
sats=[{"EPOCH":"2022-10-11T08:57:10.177344","RCS_SIZE":"LARGE","OBJECT_NAME":"STARLINK-2032","RA_OF_ASC_NODE":"242.0760","BSTAR":"-0.00008517000000","PERIOD":"95.593","COUNTRY_CODE":"US","TLE_LINE2":"2 47649  53.0536 242.0760 0001338  74.4099 285.7037 15.06387161 92576","EPHEMERIS_TYPE":"0","INCLINATION":"53.0536","ARG_OF_PERICENTER":"74.4099","ELEMENT_SET_NO":"999","NORAD_CAT_ID":"47649","CENTER_NAME":"EARTH","REF_FRAME":"TEME","CLASSIFICATION_TYPE":"U","MEAN_ANOMALY":"285.7037","OBJECT_TYPE":"PAYLOAD","FILE":"3603543","LAUNCH_DATE":"2021-02-16","APOAPSIS":"548.180","PERIAPSIS":"546.326","MEAN_MOTION":"15.06387161","REV_AT_EPOCH":"9257","OBJECT_ID":"2021-012AF","ECCENTRICITY":"0.00013380","SITE":"AFETR","MEAN_MOTION_DDOT":"0.0000000000000","MEAN_ELEMENT_THEORY":"SGP4","SEMIMAJOR_AXIS":"6925.388","GP_ID":"214780752","TLE_LINE1":"1 47649U 21012AF  22284.37303446 -.00001549  00000-0 -85170-4 0  9990","DECAY_DATE":null,"TIME_SYSTEM":"UTC","MEAN_MOTION_DOT":"-0.00001549"},{"MEAN_MOTION_DDOT":"0.0000000000000","SEMIMAJOR_AXIS":"6925.400","MEAN_ELEMENT_THEORY":"SGP4","DECAY_DATE":null,"GP_ID":"214821475","TLE_LINE1":"1 47650U 21012AG  22284.88907723 -.00002045  00000-0 -11849-3 0  9999","TIME_SYSTEM":"UTC","MEAN_MOTION_DOT":"-0.00002045","LAUNCH_DATE":"2021-02-16","PERIAPSIS":"546.319","APOAPSIS":"548.212","FILE":"3604484","ECCENTRICITY":"0.00013670","SITE":"AFETR","REV_AT_EPOCH":"9263","OBJECT_ID":"2021-012AG","MEAN_MOTION":"15.06383142","ELEMENT_SET_NO":"999","NORAD_CAT_ID":"47650","ARG_OF_PERICENTER":"73.4146","REF_FRAME":"TEME","CENTER_NAME":"EARTH","CLASSIFICATION_TYPE":"U","MEAN_ANOMALY":"286.6993","OBJECT_TYPE":"PAYLOAD","RCS_SIZE":"LARGE","EPOCH":"2022-10-11T21:20:16.272672","BSTAR":"-0.00011849000000","PERIOD":"95.593","OBJECT_NAME":"STARLINK-2033","RA_OF_ASC_NODE":"239.7580","TLE_LINE2":"2 47650  53.0539 239.7580 0001367  73.4146 286.6993 15.06383142 92631","EPHEMERIS_TYPE":"0","INCLINATION":"53.0539","COUNTRY_CODE":"US"},{"ECCENTRICITY":"0.00014690","SITE":"AFETR","REV_AT_EPOCH":"9228","OBJECT_ID":"2021-012AH","MEAN_MOTION":"15.06394859","PERIAPSIS":"546.212","LAUNCH_DATE":"2021-02-16","APOAPSIS":"548.247","FILE":"3603543","SEMIMAJOR_AXIS":"6925.364","MEAN_ELEMENT_THEORY":"SGP4","MEAN_MOTION_DDOT":"0.0000000000000","TIME_SYSTEM":"UTC","MEAN_MOTION_DOT":"0.00001419","DECAY_DATE":null,"TLE_LINE1":"1 47651U 21012AH  22284.33065373  .00001419  00000-0  11418-3 0  9990","GP_ID":"214782254","RCS_SIZE":"LARGE","EPOCH":"2022-10-11T07:56:08.482272","EPHEMERIS_TYPE":"0","TLE_LINE2":"2 47651  53.0530 262.3095 0001469  63.0587 297.0552 15.06394859 92288","INCLINATION":"53.0530","COUNTRY_CODE":"US","BSTAR":"0.00011418000000","PERIOD":"95.592","OBJECT_NAME":"STARLINK-2035","RA_OF_ASC_NODE":"262.3095","REF_FRAME":"TEME","CENTER_NAME":"EARTH","CLASSIFICATION_TYPE":"U","ELEMENT_SET_NO":"999","NORAD_CAT_ID":"47651","ARG_OF_PERICENTER":"63.0587","OBJECT_TYPE":"PAYLOAD","MEAN_ANOMALY":"297.0552"},{"MEAN_MOTION_DDOT":"0.0000000000000","MEAN_ELEMENT_THEORY":"SGP4","SEMIMAJOR_AXIS":"6925.365","GP_ID":"214781002","TLE_LINE1":"1 47652U 21012AJ  22284.35275858 -.00001066  00000-0 -52652-4 0  9990","DECAY_DATE":null,"TIME_SYSTEM":"UTC","MEAN_MOTION_DOT":"-0.00001066","FILE":"3603543","LAUNCH_DATE":"2021-02-16","PERIAPSIS":"545.908","APOAPSIS":"548.552","MEAN_MOTION":"15.06394548","OBJECT_ID":"2021-012AJ","REV_AT_EPOCH":"9228","ECCENTRICITY":"0.00019090","SITE":"AFETR","ARG_OF_PERICENTER":"50.8147","ELEMENT_SET_NO":"999","NORAD_CAT_ID":"47652","REF_FRAME":"TEME","CENTER_NAME":"EARTH","CLASSIFICATION_TYPE":"U","MEAN_ANOMALY":"309.3012","OBJECT_TYPE":"PAYLOAD","EPOCH":"2022-10-11T08:27:58.341312","RCS_SIZE":"LARGE","OBJECT_NAME":"STARLINK-2036","RA_OF_ASC_NODE":"262.1540","BSTAR":"-0.00005265200000","PERIOD":"95.592","COUNTRY_CODE":"US","TLE_LINE2":"2 47652  53.0546 262.1540 0001909  50.8147 309.3012 15.06394548 92287","EPHEMERIS_TYPE":"0","INCLINATION":"53.0546"},{"ARG_OF_PERICENTER":"64.8798","NORAD_CAT_ID":"47653","ELEMENT_SET_NO":"999","CLASSIFICATION_TYPE":"U","REF_FRAME":"TEME","CENTER_NAME":"EARTH","MEAN_ANOMALY":"295.2333","OBJECT_TYPE":"PAYLOAD","EPOCH":"2022-10-11T09:55:32.925792","RCS_SIZE":"LARGE","RA_OF_ASC_NODE":"241.8828","OBJECT_NAME":"STARLINK-2037","PERIOD":"95.593","BSTAR":"-0.00003210200000","COUNTRY_CODE":"US","INCLINATION":"53.0565","TLE_LINE2":"2 47653  53.0565 241.8828 0001369  64.8798 295.2333 15.06393396 92569","EPHEMERIS_TYPE":"0","MEAN_MOTION_DDOT":"0.0000000000000","MEAN_ELEMENT_THEORY":"SGP4","SEMIMAJOR_AXIS":"6925.369","TLE_LINE1":"1 47653U 21012AK  22284.41357553 -.00000759  00000-0 -32102-4 0  9997","GP_ID":"214781252","DECAY_DATE":null,"TIME_SYSTEM":"UTC","MEAN_MOTION_DOT":"-0.00000759","FILE":"3603543","LAUNCH_DATE":"2021-02-16","PERIAPSIS":"546.286","APOAPSIS":"548.182","MEAN_MOTION":"15.06393396","OBJECT_ID":"2021-012AK","REV_AT_EPOCH":"9256","SITE":"AFETR","ECCENTRICITY":"0.00013690"},{"LAUNCH_DATE":"2021-02-16","PERIAPSIS":"546.101","APOAPSIS":"548.329","FILE":"3603543","SITE":"AFETR","ECCENTRICITY":"0.00016090","MEAN_MOTION":"15.06399509","REV_AT_EPOCH":"9228","OBJECT_ID":"2021-012AL","MEAN_MOTION_DDOT":"0.0000000000000","SEMIMAJOR_AXIS":"6925.350","MEAN_ELEMENT_THEORY":"SGP4","DECAY_DATE":null,"GP_ID":"214782004","TLE_LINE1":"1 47654U 21012AL  22284.35644306  .00001452  00000-0  11635-3 0  9992","TIME_SYSTEM":"UTC","MEAN_MOTION_DOT":"0.00001452","RCS_SIZE":"LARGE","EPOCH":"2022-10-11T08:33:16.680384","PERIOD":"95.592","BSTAR":"0.00011635000000","RA_OF_ASC_NODE":"262.1506","OBJECT_NAME":"STARLINK-2038","INCLINATION":"53.0536","EPHEMERIS_TYPE":"0","TLE_LINE2":"2 47654  53.0536 262.1506 0001609  52.1384 307.9751 15.06399509 92281","COUNTRY_CODE":"US","NORAD_CAT_ID":"47654","ELEMENT_SET_NO":"999","ARG_OF_PERICENTER":"52.1384","CLASSIFICATION_TYPE":"U","CENTER_NAME":"EARTH","REF_FRAME":"TEME","MEAN_ANOMALY":"307.9751","OBJECT_TYPE":"PAYLOAD"},{"LAUNCH_DATE":"2021-02-16","APOAPSIS":"548.459","PERIAPSIS":"546.004","FILE":"3603543","SITE":"AFETR","ECCENTRICITY":"0.00017720","REV_AT_EPOCH":"9228","OBJECT_ID":"2021-012AM","MEAN_MOTION":"15.06394090","MEAN_MOTION_DDOT":"0.0000000000000","SEMIMAJOR_AXIS":"6925.367","MEAN_ELEMENT_THEORY":"SGP4","DECAY_DATE":null,"TLE_LINE1":"1 47655U 21012AM  22284.34907860  .00000885  00000-0  78295-4 0  9994","GP_ID":"214781755","TIME_SYSTEM":"UTC","MEAN_MOTION_DOT":"0.00000885","RCS_SIZE":"LARGE","EPOCH":"2022-10-11T08:22:40.391040","PERIOD":"95.593","BSTAR":"0.00007829500000","RA_OF_ASC_NODE":"262.1777","OBJECT_NAME":"STARLINK-2039","INCLINATION":"53.0526","EPHEMERIS_TYPE":"0","TLE_LINE2":"2 47655  53.0526 262.1777 0001772  54.4299 305.6855 15.06394090 92282","COUNTRY_CODE":"US","NORAD_CAT_ID":"47655","ELEMENT_SET_NO":"999","ARG_OF_PERICENTER":"54.4299","CLASSIFICATION_TYPE":"U","REF_FRAME":"TEME","CENTER_NAME":"EARTH","MEAN_ANOMALY":"305.6855","OBJECT_TYPE":"PAYLOAD"},{"FILE":"3604484","APOAPSIS":"548.320","LAUNCH_DATE":"2021-02-16","PERIAPSIS":"546.218","REV_AT_EPOCH":"9264","OBJECT_ID":"2021-012AN","MEAN_MOTION":"15.06381899","SITE":"AFETR","ECCENTRICITY":"0.00015180","GP_ID":"214821978","TLE_LINE1":"1 47656U 21012AN  22284.89644062 -.00003989  00000-0 -24914-3 0  9995","DECAY_DATE":null,"TIME_SYSTEM":"UTC","MEAN_MOTION_DOT":"-0.00003989","MEAN_MOTION_DDOT":"0.0000000000000","MEAN_ELEMENT_THEORY":"SGP4","SEMIMAJOR_AXIS":"6925.404","RA_OF_ASC_NODE":"239.7228","OBJECT_NAME":"STARLINK-2040","PERIOD":"95.593","BSTAR":"-0.00024914000000","COUNTRY_CODE":"US","INCLINATION":"53.0545","EPHEMERIS_TYPE":"0","TLE_LINE2":"2 47656  53.0545 239.7228 0001518  64.5337 295.5809 15.06381899 92647","EPOCH":"2022-10-11T21:30:52.469568","RCS_SIZE":"LARGE","MEAN_ANOMALY":"295.5809","OBJECT_TYPE":"PAYLOAD","ARG_OF_PERICENTER":"64.5337","NORAD_CAT_ID":"47656","ELEMENT_SET_NO":"999","CLASSIFICATION_TYPE":"U","REF_FRAME":"TEME","CENTER_NAME":"EARTH"},{"OBJECT_ID":"2021-012AP","MEAN_MOTION":"15.06383435","REV_AT_EPOCH":"9228","SITE":"AFETR","ECCENTRICITY":"0.00014820","FILE":"3603543","APOAPSIS":"548.291","LAUNCH_DATE":"2021-02-16","PERIAPSIS":"546.238","MEAN_ELEMENT_THEORY":"SGP4","SEMIMAJOR_AXIS":"6925.399","MEAN_MOTION_DDOT":"0.0000000000000","TIME_SYSTEM":"UTC","MEAN_MOTION_DOT":"0.00000777","GP_ID":"214780753","TLE_LINE1":"1 47657U 21012AP  22284.37119329  .00000777  00000-0  71108-4 0  9990","DECAY_DATE":null,"EPOCH":"2022-10-11T08:54:31.100256","RCS_SIZE":"LARGE","COUNTRY_CODE":"US","INCLINATION":"53.0542","TLE_LINE2":"2 47657  53.0542 262.0736 0001482  74.7802 285.3350 15.06383435 92284","EPHEMERIS_TYPE":"0","RA_OF_ASC_NODE":"262.0736","OBJECT_NAME":"STARLINK-2041","PERIOD":"95.593","BSTAR":"0.00007110800000","CLASSIFICATION_TYPE":"U","CENTER_NAME":"EARTH","REF_FRAME":"TEME","ARG_OF_PERICENTER":"74.7802","NORAD_CAT_ID":"47657","ELEMENT_SET_NO":"999","OBJECT_TYPE":"PAYLOAD","MEAN_ANOMALY":"285.3350"},{"MEAN_ELEMENT_THEORY":"SGP4","SEMIMAJOR_AXIS":"6925.372","MEAN_MOTION_DDOT":"0.0000000000000","MEAN_MOTION_DOT":"-0.00001459","TIME_SYSTEM":"UTC","TLE_LINE1":"1 47658U 21012AQ  22284.43016770 -.00001459  00000-0 -79067-4 0  9996","GP_ID":"214781505","DECAY_DATE":null,"OBJECT_ID":"2021-012AQ","MEAN_MOTION":"15.06392219","REV_AT_EPOCH":"9231","SITE":"AFETR","ECCENTRICITY":"0.00014950","FILE":"3603543","LAUNCH_DATE":"2021-02-16","APOAPSIS":"548.273","PERIAPSIS":"546.202","CLASSIFICATION_TYPE":"U","REF_FRAME":"TEME","CENTER_NAME":"EARTH","ARG_OF_PERICENTER":"60.2986","NORAD_CAT_ID":"47658","ELEMENT_SET_NO":"999","OBJECT_TYPE":"PAYLOAD","MEAN_ANOMALY":"299.8152","EPOCH":"2022-10-11T10:19:26.489280","RCS_SIZE":"LARGE","COUNTRY_CODE":"US","INCLINATION":"53.0536","EPHEMERIS_TYPE":"0","TLE_LINE2":"2 47658  53.0536 261.8165 0001495  60.2986 299.8152 15.06392219 92312","RA_OF_ASC_NODE":"261.8165","OBJECT_NAME":"STARLINK-2042","PERIOD":"95.593","BSTAR":"-0.00007906700000"}];
